ONEWEB-0319             
1 49105U 21075AG  25197.68740495 -.00000020  00000+0 -84622-4 0  9990
2 49105  87.9048  72.6680 0001371  84.0293 276.0995 13.17648497189426
ONEWEB-0323             
1 49106U 21075AH  25197.59716550  .00000391  00000+0  10524-2 0  9993
2 49106  87.8854  57.3736 0001041  90.0151 270.1097 13.12444507190530
ONEWEB-0329             
1 49107U 21075AJ  25197.69583301  .00001241  00000+0  31609-2 0  9993
2 49107  87.9049  72.6711 0001510  79.0682 281.0620 13.17660144189407
ONEWEB-0330             
1 49108U 21075AK  25197.69749341 -.00000251  00000+0 -68091-3 0  9990
2 49108  87.9043  72.6720 0001362  71.0019 289.1260 13.17642724189440
ONEWEB-0292             
1 49186U 21083A   25197.52707527  .00000241  00000+0  62633-3 0  9990
2 49186  87.8959  26.9561 0001667  93.1499 266.9821 13.13470704186863
ONEWEB-0303             
1 49187U 21083B   25197.92987845 -.00000014  00000+0 -68378-4 0  9991
2 49187  87.9124  42.0613 0001636  90.0627 270.0693 13.18687468185797
ONEWEB-0306             
1 49188U 21083C   25197.84410023  .00000036  00000+0  57700-4 0  9991
2 49188  87.9124  42.0634 0001974  82.8927 277.2429 13.18686946185828
ONEWEB-0307             
1 49189U 21083D   25197.90204155  .00000341  00000+0  89775-3 0  9991
2 49189  87.8959  26.8857 0001955  79.6476 280.4874 13.13470857186911
